{
  "type": "FeatureCollection",
  "features": [
    {
      "type": "Feature",
      "properties": {
        "norad_id": 37867,
        "name": "COSMOS 2476 (744)",
        "group": "glo-ops",
        "lat": 10.472253920689788,
        "lon": 84.19447879183609,
        "alt_km": 19174.53201587707,
        "timestamp": "2025-12-09T09:46:47.906277+00:00",
        "meta_object_name": "COSMOS 2476 (744)",
        "meta_object_id": "2011-064A",
        "meta_epoch": "2025-12-08T12:40:16.683168",
        "meta_mean_motion": 2.131013,
        "meta_eccentricity": 0.00241182,
        "meta_inclination": 65.16,
        "meta_ra_of_asc_node": 79.314,
        "meta_arg_of_pericenter": 233.9995,
        "meta_mean_anomaly": 182.6426,
        "meta_ephemeris_type": 0,
        "meta_classification_type": "U",
        "meta_norad_cat_id": 37867,
        "meta_element_set_no": 999,
        "meta_rev_at_epoch": 10970,
        "meta_bstar": 0,
        "meta_mean_motion_dot": -1.2e-07,
        "meta_mean_motion_ddot": 0,
        "tle_line1": "1 37867U 11064A   25342.52797087 -.00000012  00000+0  00000+0 0  9996",
        "tle_line2": "2 37867  65.1600  79.3140 0024118 233.9995 182.6426  2.13101300109708"
      },
      "geometry": {
        "type": "Point",
        "coordinates": [
          84.19447879183609,
          10.472253920689788
        ]
      }
    },
    {
      "type": "Feature",
      "properties": {
        "norad_id": 37868,
        "name": "COSMOS 2477 (745)",
        "group": "glo-ops",
        "lat": -11.038722197611458,
        "lon": -95.45699522954344,
        "alt_km": 19091.810095578767,
        "timestamp": "2025-12-09T09:46:47.906289+00:00",
        "meta_object_name": "COSMOS 2477 (745)",
        "meta_object_id": "2011-064B",
        "meta_epoch": "2025-12-08T06:12:22.664160",
        "meta_mean_motion": 2.13102704,
        "meta_eccentricity": 0.0021182,
        "meta_inclination": 65.1663,
        "meta_ra_of_asc_node": 79.4007,
        "meta_arg_of_pericenter": 234.576,
        "meta_mean_anomaly": 156.3219,
        "meta_ephemeris_type": 0,
        "meta_classification_type": "U",
        "meta_norad_cat_id": 37868,
        "meta_element_set_no": 999,
        "meta_rev_at_epoch": 10969,
        "meta_bstar": 0,
        "meta_mean_motion_dot": -1.1e-07,
        "meta_mean_motion_ddot": 0,
        "tle_line1": "1 37868U 11064B   25342.25859565 -.00000011  00000+0  00000+0 0  9996",
        "tle_line2": "2 37868  65.1663  79.4007 0021182 234.5760 156.3219  2.13102704109691"
      },
      "geometry": {
        "type": "Point",
        "coordinates": [
          -95.45699522954344,
          -11.038722197611458
        ]
      }
    },
    {
      "type": "Feature",
      "properties": {
        "norad_id": 37869,
        "name": "COSMOS 2475 (743)",
        "group": "glo-ops",
        "lat": 28.749424922626446,
        "lon": -115.30019211357519,
        "alt_km": 19138.344082133972,
        "timestamp": "2025-12-09T09:46:47.906309+00:00",
        "meta_object_name": "COSMOS 2475 (743)",
        "meta_object_id": "2011-064C",
        "meta_epoch": "2025-12-09T06:01:19.560576",
        "meta_mean_motion": 2.13101305,
        "meta_eccentricity": 0.002608,
        "meta_inclination": 65.1742,
        "meta_ra_of_asc_node": 79.3871,
        "meta_arg_of_pericenter": 248.2681,
        "meta_mean_anomaly": 139.87,
        "meta_ephemeris_type": 0,
        "meta_classification_type": "U",
        "meta_norad_cat_id": 37869,
        "meta_element_set_no": 999,
        "meta_rev_at_epoch": 10972,
        "meta_bstar": 0,
        "meta_mean_motion_dot": -1.3e-07,
        "meta_mean_motion_ddot": 0,
        "tle_line1": "1 37869U 11064C   25343.25092084 -.00000013  00000+0  00000+0 0  9995",
        "tle_line2": "2 37869  65.1742  79.3871 0026080 248.2681 139.8700  2.13101305109725"
      },
      "geometry": {
        "type": "Point",
        "coordinates": [
          -115.30019211357519,
          28.749424922626446
        ]
      }
    },
    {
      "type": "Feature",
      "properties": {
        "norad_id": 39155,
        "name": "COSMOS 2485 (747)",
        "group": "glo-ops",
        "lat": 51.636003471427124,
        "lon": 115.45168711747796,
        "alt_km": 19185.533456441994,
        "timestamp": "2025-12-09T09:46:47.906335+00:00",
        "meta_object_name": "COSMOS 2485 (747)",
        "meta_object_id": "2013-019A",
        "meta_epoch": "2025-12-08T20:38:39.480288",
        "meta_mean_motion": 2.13102846,
        "meta_eccentricity": 0.00245424,
        "meta_inclination": 65.3114,
        "meta_ra_of_asc_node": 79.9979,
        "meta_arg_of_pericenter": 229.0903,
        "meta_mean_anomaly": 130.7128,
        "meta_ephemeris_type": 0,
        "meta_classification_type": "U",
        "meta_norad_cat_id": 39155,
        "meta_element_set_no": 999,
        "meta_rev_at_epoch": 9822,
        "meta_bstar": 0,
        "meta_mean_motion_dot": -1.1e-07,
        "meta_mean_motion_ddot": 0,
        "tle_line1": "1 39155U 13019A   25342.86017917 -.00000011  00000+0  00000+0 0  9993",
        "tle_line2": "2 39155  65.3114  79.9979 0024542 229.0903 130.7128  2.13102846 98227"
      },
      "geometry": {
        "type": "Point",
        "coordinates": [
          115.45168711747796,
          51.636003471427124
        ]
      }
    },
    {
      "type": "Feature",
      "properties": {
        "norad_id": 39620,
        "name": "COSMOS 2492 (754)",
        "group": "glo-ops",
        "lat": 65.34833302284954,
        "lon": 54.36662113132256,
        "alt_km": 19150.59295600109,
        "timestamp": "2025-12-09T09:46:47.906352+00:00",
        "meta_object_name": "COSMOS 2492 (754)",
        "meta_object_id": "2014-012A",
        "meta_epoch": "2025-12-08T08:23:17.785824",
        "meta_mean_motion": 2.13103117,
        "meta_eccentricity": 0.0014207,
        "meta_inclination": 65.4103,
        "meta_ra_of_asc_node": 320.4195,
        "meta_arg_of_pericenter": 311.8365,
        "meta_mean_anomaly": 48.0373,
        "meta_ephemeris_type": 0,
        "meta_classification_type": "U",
        "meta_norad_cat_id": 39620,
        "meta_element_set_no": 999,
        "meta_rev_at_epoch": 9117,
        "meta_bstar": 0,
        "meta_mean_motion_dot": -4.9e-07,
        "meta_mean_motion_ddot": 0,
        "tle_line1": "1 39620U 14012A   25342.34951141 -.00000049  00000+0  00000+0 0  9994",
        "tle_line2": "2 39620  65.4103 320.4195 0014207 311.8365  48.0373  2.13103117 91178"
      },
      "geometry": {
        "type": "Point",
        "coordinates": [
          54.36662113132256,
          65.34833302284954
        ]
      }
    },
    {
      "type": "Feature",
      "properties": {
        "norad_id": 40001,
        "name": "COSMOS 2500 (755)",
        "group": "glo-ops",
        "lat": -36.132511254739796,
        "lon": -59.45221716260079,
        "alt_km": 19138.066201339196,
        "timestamp": "2025-12-09T09:46:47.906365+00:00",
        "meta_object_name": "COSMOS 2500 (755)",
        "meta_object_id": "2014-032A",
        "meta_epoch": "2025-12-08T23:47:04.888320",
        "meta_mean_motion": 2.13105786,
        "meta_eccentricity": 0.0008333,
        "meta_inclination": 65.3455,
        "meta_ra_of_asc_node": 320.1603,
        "meta_arg_of_pericenter": 219.1705,
        "meta_mean_anomaly": 140.7654,
        "meta_ephemeris_type": 0,
        "meta_classification_type": "U",
        "meta_norad_cat_id": 40001,
        "meta_element_set_no": 999,
        "meta_rev_at_epoch": 8940,
        "meta_bstar": 0,
        "meta_mean_motion_dot": -4.9e-07,
        "meta_mean_motion_ddot": 0,
        "tle_line1": "1 40001U 14032A   25342.99102880 -.00000049  00000+0  00000+0 0  9990",
        "tle_line2": "2 40001  65.3455 320.1603 0008333 219.1705 140.7654  2.13105786 89403"
      },
      "geometry": {
        "type": "Point",
        "coordinates": [
          -59.45221716260079,
          -36.132511254739796
        ]
      }
    },
    {
      "type": "Feature",
      "properties": {
        "norad_id": 40315,
        "name": "COSMOS 2501 (702K)",
        "group": "glo-ops",
        "lat": 50.873836196293716,
        "lon": -20.66934053604051,
        "alt_km": 19119.18201414174,
        "timestamp": "2025-12-09T09:46:47.906377+00:00",
        "meta_object_name": "COSMOS 2501 (702K)",
        "meta_object_id": "2014-075A",
        "meta_epoch": "2025-12-07T20:13:51.362112",
        "meta_mean_motion": 2.13101338,
        "meta_eccentricity": 0.00201356,
        "meta_inclination": 63.6139,
        "meta_ra_of_asc_node": 196.9947,
        "meta_arg_of_pericenter": 204.4913,
        "meta_mean_anomaly": 155.4908,
        "meta_ephemeris_type": 0,
        "meta_classification_type": "U",
        "meta_norad_cat_id": 40315,
        "meta_element_set_no": 999,
        "meta_rev_at_epoch": 8577,
        "meta_bstar": 0,
        "meta_mean_motion_dot": 5.4e-07,
        "meta_mean_motion_ddot": 0,
        "tle_line1": "1 40315U 14075A   25341.84295558  .00000054  00000+0  00000+0 0  9998",
        "tle_line2": "2 40315  63.6139 196.9947 0020135 204.4913 155.4908  2.13101338 85773"
      },
      "geometry": {
        "type": "Point",
        "coordinates": [
          -20.66934053604051,
          50.873836196293716
        ]
      }
    }
  ]
}